#dP2021  1 10  0  0  0.00000000      96 __u+U ITR00 FIT  IAC
## 2140      0.00000000   900.00000000 59224 0.0000000000000
+  115   C06C07C08C09C10C11C12C13C14C16C19C20C21C22C23C24C25
+        C26C27C28C29C30C32C33C34C35C36C37C38C39C40C43C44C45
+        C46E01E02E03E04E05E07E08E09E11E12E13E14E15E18E19E21
+        E24E25E26E27E30E31E33E36G01G02G03G04G05G06G07G08G09
+        G10G11G12G13G14G15G16G17G18G19G20G21G22G23G24G25G26
+        G27G28G29G30G31G32J01J02J03R01R02R03R04R05R07R08R09
+        R11R12R13R14R15R16R17R18R19R20R21R22R24  0  0  0  0
++         8  7  6  7  8  8  8  8  7  8  6  7  7  7  7  6  8
++         7  8  7  7  8  8  8  7  5  6  7  5 15 13 10 10 10
++        11  7  6  7  7  6  5  6  6  7  9  5  7  6  7  7  7
++         7  5  7  5  7  6  7  6  6  6  6  5  5  5  6  5  6
++         7  5  7  5  7  6  7  6  6  7  6  7  5  7  6  6  4
++         6  7  5  6  8  7 10  8  5  7  6  8  7  8  7  7  6
++         6  6  6  6  6  8  6  6  7  7  5  7  6  0  0  0  0
%c M  cc GPS ccc cccc cccc cccc cccc ccccc ccccc ccccc ccccc
%c cc cc ccc ccc cccc cccc cccc cccc ccccc ccccc ccccc ccccc
%f  0.0000000  0.000000000  0.00000000000  0.000000000000000
%f  0.0000000  0.000000000  0.00000000000  0.000000000000000
%i    0    0    0    0      0      0      0      0         0
%i    0    0    0    0      0      0      0      0         0
/* INFORMATION & ANALYSIS CENTER (IAC)      ULTRA-RAPID DATA
/* S/V CLOCKS ARE ALIGNED TO GNSS TIME                      
/* G:C1WC2W R:C1PC2P E:C1XC5X C:C2IC6I J:C1CC2S             
/* PCV:IGS14_2134 OL/AL:FES2004  NONE     YN ORB:CoN CLK:CoN
*  2021 01 10  6 30  0.00000000
PC06 -23147.649968  28372.884079  20914.259861    122.208160
PC07 -10778.248941  38395.009447  14690.789335   -212.838092
PC08  -8201.581780  19900.423153 -36115.172890   -880.405136
PC09  -7237.569596  27624.618388  31146.522591    813.655462
PC10  -1743.944256  42194.099527   3972.331350   -106.751934
PC11  -9246.522029 -12976.552741  22983.750281   -875.999643
PC12  11045.109047 -16787.635058  19395.861897    720.230304
PC13   6498.681965  27276.003734 -31293.351721     91.342580
PC14  -5271.482339 -23332.687903 -14308.844693   -129.610289
PC16 -22316.111950  28418.001602  21641.695959   -655.268236
PC19  11111.216459  15595.927349  20322.867261    685.511318
PC20   -461.554638  26935.840197   7335.958921   -909.318417
PC21  12346.681608 -22638.056191  10662.544323   -786.931425
PC22  16569.138606  -5071.076998  21867.998315   -840.073630
PC23 -22045.644786  -4175.624471  16599.711436   -882.959334
PC24  -7077.130822 -21878.994502 -15844.135997   -739.693248
PC25 -21514.226004 -17760.949356   1093.425823   -892.059731
PC26   9410.255829 -13244.652803 -22698.373312    965.094926
PC27 -19925.298464  15048.677449 -12455.788100    463.936898
PC28 -27071.661740   4670.185937   4932.891653   -123.520676
PC29  18615.598764   7702.232799 -19312.996862    336.558268
PC30  -1032.709966  16710.751122 -22320.619263    429.225070
PC32 -12177.654861  22735.959241 -10649.066476   -882.654944
PC33 -11167.249829 -15611.701863 -20250.725871   -907.899523
PC34    370.889687 -16605.405559  22425.110655   -766.547811
PC35  26902.135393  -5410.937740  -5173.783558   -472.673793
PC36  20941.256332  18421.460832   -767.940626   -780.777487
PC37 -10480.085356  12351.452454  22737.297261   -860.662434
PC38  -7503.190581  22910.706020 -34549.400774 999999.999999
PC39 -18768.004353  29956.324901  22878.488549 999999.999999
PC40  -8363.590798  40527.168628   8496.643034    119.751179
PC43 -18222.368503  -8187.044654  19474.617056 999999.999999
PC44  19598.514654 -15696.822594  12210.867820    -21.031342
PC45  21959.165556   4110.880354 -16703.782474    331.332261
PC46   7880.946816  21916.045722  15344.677285    459.118902
PE01   9082.755056  28056.949550   2463.909230  -1021.643221
PE02  -9165.099347 -28061.154594  -2352.880643    189.957750
PE03   -290.422176 -22047.637399 -19751.056790   -385.672875
PE04  16174.511714   6817.665605  23832.125996   -685.779348
PE05  16014.080308 -24570.677990  -4009.316445   -314.130748
PE07 -22816.007526  12727.582350 -13923.046222   -485.753313
PE08 -16294.565194  -6347.180355 -23889.045896   6064.250469
PE09  22670.840983 -13020.423173  13865.666873   5804.043855
PE11  27691.325371  -2718.915821  10119.052397   6493.939114
PE12  26301.414515   9932.498462  -9274.969209   5414.170495
PE13 -27821.444443   2526.531549  -9771.158189    409.984474
PE14   9635.462311 -18548.933568  11640.260224  -1289.576969
PE15 -26353.527924  -9793.613234   9273.090067    834.992859
PE18  -4014.699105  24031.577660 -21344.362929  -1409.382534
PE19  -1871.698405  23049.194329  18471.159270    174.687275
PE21  -4683.556925  22478.687844  18673.852788   -642.032813
PE24  16481.452450  -2990.175173 -24413.135602   -681.656371
PE25   4794.000938 -22378.797175 -18773.450377   -524.017235
PE26 -12307.654170  13685.252133 -23171.937443   2282.513365
PE27 -16215.769023   3668.581766  24494.948961     54.242709
PE30 -17936.149186 -17906.218504  15302.985662   3274.926174
PE31  18136.661118  17161.959824 -15880.595185   -477.226386
PE33   9402.619060  16326.300216 -22817.940185   -464.745946
PE36  12926.996414 -13350.209614  23052.302933    456.247126
PG01  20776.024748  14532.562972  -8710.204794    782.665175
PG02     37.228143 -15965.070062  21886.026494   -564.320316
PG03  12831.342255  18263.071241  14392.836053    -52.423537
PG04  12927.833269   9018.642613  21384.459438   -171.538843
PG05  -2788.473745 -26122.375701   3027.525415    -30.600643
PG06  14755.741526  -8814.274810  20326.447745     -4.639284
PG07  25481.344399   5824.720401  -5664.958341     15.926505
PG08   5672.899672  14495.055999 -21475.412055     -6.057546
PG09  20893.203700  -2428.594191  16164.623219   -311.137427
PG10 -12518.649008  11072.117827 -20475.779429    -35.828649
PG11  13826.721784  13086.378083 -18837.875573    -57.174647
PG12  -9666.364625 -21818.069148  11579.246623     15.003976
PG13   5473.541931 -18295.258526 -18546.081260     84.283325
PG14  13811.952695  -8780.561866 -20926.164480     82.912382
PG15  -8655.010690 -13861.457475 -21260.382612   -177.351025
PG16   -703.985676  26034.394541   3483.478165   -262.911348
PG17  21958.225053 -14865.695882   -907.528151    378.319824
PG18 -24858.113983  -3871.270061  -8612.807350    340.118162
PG19  19410.098241 -17045.437560   5695.288138    -53.884037
PG20 -16539.736249  -1854.433087 -20805.570818    525.232103
PG21  15507.854911  15518.090597 -14515.133652     85.489165
PG22  11029.550230  23363.193169   6715.205938   -700.820260
PG23 -15423.964601   -740.982366 -21638.213791    115.395994
PG24 -18028.824131 -15391.836332 -12599.946391      3.877461
PG25 -15208.738270  -9183.657015  19580.356082     56.756147
PG26  -6261.579473  21409.972280  14173.877738     27.680921
PG27  -7128.015077  19764.319245 -16177.751244    -52.957974
PG28  12420.603282 -12464.602385 -19387.274379    631.732214
PG29 -20348.507097    319.566841  17052.688004   -272.931662
PG30  21574.152080  -3091.034926 -15283.875358   -366.530428
PG31 -13006.399850  10402.312625  20712.120834    -92.975586
PG32 -20915.500657  16187.873852   -962.182220     13.470653
PJ01 -24471.504742  31568.716076  -8992.476767   -336.142561
PJ02 -25350.190466  22422.419827  30047.768422      0.616441
PJ03 -33537.501414  21691.113475  -8545.282104 999999.999999
PR01   7986.981348 -24042.779951  -2930.300063     73.278916
PR02  -4070.487801 -14903.228665 -20282.281143    462.245657
PR03 -12443.402325   2517.736352 -22078.116596     28.865862
PR04 -13520.241396  18355.014236 -11413.371168     69.365023
PR05  -7178.570230  23797.440973   5674.871270     64.467024
PR07  12676.324489  -3236.021225  21937.388018    -42.119485
PR08  13608.368131 -18323.884026  11461.290209    -56.771600
PR09  15859.291321  20017.778336   -447.190161     17.778986
PR11   8587.170100  -6649.980164 -23071.342067      4.704142
PR12  -5113.390750 -19170.996810 -16024.845771    195.437467
PR13 -15740.427350 -20077.237511     -2.365973    -49.116677
PR14 -17079.563510  -9095.550320  16625.247026     59.687811
PR15  -8543.733107   6913.859105  23036.055810    105.964488
PR16   5994.512121  19371.796109  15362.414305    -10.046744
PR17 -24722.131501    129.009349   6378.313371    389.950597
PR18 -21995.304468   7375.511148 -10524.697871     62.650282
PR19  -8618.014131  10466.271232 -21600.110415   -127.271029
PR20  12944.317495   7950.712396 -20489.335251   -430.801073
PR21  24940.465924   -621.016587  -5241.904160   -179.327662
PR22  21458.177858  -7643.392454  11570.731243    -91.694951
PR24 -13727.533516  -7989.387534  19987.910292     27.232989
EOF
